STARLINK-5209           
1 54061U 22136L   26068.84802331  .00001685  00000+0  12387-3 0  9994
2 54061  53.2181 308.0224 0001437  87.1231 272.9926 15.08857145187360
LEMUR-2-KREMPEL-BRO2    
1 63353U 25061C   26068.86379735  .00007837  00000+0  44347-3 0  9993
2 63353  97.5616  45.5365 0017925 236.8576 123.0936 15.13192951 52586
